[
    {
        "Altitude(m)": 604969.089236703,
        "Argument of Periapsis(deg)": 0.0,
        "Eccentricity": 0.0,
        "Inclination(deg)": 60.0,
        "Latitude(deg)": -0.09274446170134741,
        "Longitude(deg)": -75.02247235242463,
        "Mean Anomaly(deg)": 0.0,
        "RAAN(deg)": 25.0,
        "Satellite Name": "Test1 110",
        "Satellite Number": 110,
        "Semi-Major Axis(m)": 6980739.136638005,
        "Time(s)": 0
    },
    {
        "Altitude(m)": 604900.0281487923,
        "Argument of Periapsis(deg)": 0.00010418945913296404,
        "Eccentricity": 0.0,
        "Inclination(deg)": 60.0,
        "Latitude(deg)": 0.44768155941908233,
        "Longitude(deg)": -74.754349574873,
        "Mean Anomaly(deg)": 0.6201061454618307,
        "RAAN(deg)": 24.99957995086026,
        "Satellite Name": "Test1 110",
        "Satellite Number": 110,
        "Semi-Major Axis(m)": 6980739.136638005,
        "Time(s)": 10
    },
    {
        "Altitude(m)": 604834.1951306555,
        "Argument of Periapsis(deg)": 0.0002083789182659281,
        "Eccentricity": 0.0,
        "Inclination(deg)": 60.0,
        "Latitude(deg)": 0.988104356657921,
        "Longitude(deg)": -74.48617539359667,
        "Mean Anomaly(deg)": 1.2402122909236615,
        "RAAN(deg)": 24.999159901720514,
        "Satellite Name": "Test1 110",
        "Satellite Number": 110,
        "Semi-Major Axis(m)": 6980739.136638005,
        "Time(s)": 20
    },
    {
        "Altitude(m)": 604771.5965615682,
        "Argument of Periapsis(deg)": 0.00031256837739889213,
        "Eccentricity": 0.0,
        "Inclination(deg)": 60.0,
        "Latitude(deg)": 1.5285068440146528,
        "Longitude(deg)": -74.21789541925646,
        "Mean Anomaly(deg)": 1.8603184363854923,
        "RAAN(deg)": 24.998739852580773,
        "Satellite Name": "Test1 110",
        "Satellite Number": 110,
        "Semi-Major Axis(m)": 6980739.136638005,
        "Time(s)": 30
    },
    {
        "Altitude(m)": 604712.2372909043,
        "Argument of Periapsis(deg)": 0.0004167578365318562,
        "Eccentricity": 0.0,
        "Inclination(deg)": 60.0,
        "Latitude(deg)": 2.0688719140285317,
        "Longitude(deg)": -73.94945469397705,
        "Mean Anomaly(deg)": 2.480424581847323,
        "RAAN(deg)": 24.998319803441028,
        "Satellite Name": "Test1 110",
        "Satellite Number": 110,
        "Semi-Major Axis(m)": 6980739.136638005,
        "Time(s)": 40
    },
    {
        "Altitude(m)": 604656.1206385946,
        "Argument of Periapsis(deg)": 0.0005209472956648203,
        "Eccentricity": 0.0,
        "Inclination(deg)": 60.0,
        "Latitude(deg)": 2.6091824278671547,
        "Longitude(deg)": -73.68079866791173,
        "Mean Anomaly(deg)": 3.1005307273091542,
        "RAAN(deg)": 24.997899754301287,
        "Satellite Name": "Test1 110",
        "Satellite Number": 110,
        "Semi-Major Axis(m)": 6980739.136638005,
        "Time(s)": 50
    },
    {
        "Altitude(m)": 604603.2483963006,
        "Argument of Periapsis(deg)": 0.0006251367547977843,
        "Eccentricity": 0.0,
        "Inclination(deg)": 60.0,
        "Latitude(deg)": 3.1494212053756763,
        "Longitude(deg)": -73.41187266284547,
        "Mean Anomaly(deg)": 3.7206368727709846,
        "RAAN(deg)": 24.997479705161545,
        "Satellite Name": "Test1 110",
        "Satellite Number": 110,
        "Semi-Major Axis(m)": 6980739.136638005,
        "Time(s)": 60
    },
    {
        "Altitude(m)": 604553.620829394,
        "Argument of Periapsis(deg)": 0.0007293262139307483,
        "Eccentricity": 0.0,
        "Inclination(deg)": 60.0,
        "Latitude(deg)": 3.6895710150728007,
        "Longitude(deg)": -73.14262133567955,
        "Mean Anomaly(deg)": 4.340743018232812,
        "RAAN(deg)": 24.997059656021804,
        "Satellite Name": "Test1 110",
        "Satellite Number": 110,
        "Semi-Major Axis(m)": 6980739.136638005,
        "Time(s)": 70
    },
    {
        "Altitude(m)": 604507.2366796413,
        "Argument of Periapsis(deg)": 0.0008335156730637124,
        "Eccentricity": 0.0,
        "Inclination(deg)": 60.0,
        "Latitude(deg)": 4.229614564079581,
        "Longitude(deg)": -72.87298965464244,
        "Mean Anomaly(deg)": 4.960849163694643,
        "RAAN(deg)": 24.99663960688206,
        "Satellite Name": "Test1 110",
        "Satellite Number": 110,
        "Semi-Major Axis(m)": 6980739.136638005,
        "Time(s)": 80
    },
    {
        "Altitude(m)": 604464.0931686644,
        "Argument of Periapsis(deg)": 0.0009377051321966765,
        "Eccentricity": 0.0,
        "Inclination(deg)": 60.0,
        "Latitude(deg)": 4.769534487968328,
        "Longitude(deg)": -72.6029223624523,
        "Mean Anomaly(deg)": 5.580955309156477,
        "RAAN(deg)": 24.996219557742318,
        "Satellite Name": "Test1 110",
        "Satellite Number": 110,
        "Semi-Major Axis(m)": 6980739.136638005,
        "Time(s)": 90
    },
    {
        "Altitude(m)": 604424.1860021409,
        "Argument of Periapsis(deg)": 0.0010418945913296407,
        "Eccentricity": 0.0,
        "Inclination(deg)": 60.0,
        "Latitude(deg)": 5.309313340517492,
        "Longitude(deg)": -72.33236343927346,
        "Mean Anomaly(deg)": 6.201061454618304,
        "RAAN(deg)": 24.995799508602577,
        "Satellite Name": "Test1 110",
        "Satellite Number": 110,
        "Semi-Major Axis(m)": 6980739.136638005,
        "Time(s)": 100
    },
    {
        "Altitude(m)": 604387.5093747464,
        "Argument of Periapsis(deg)": 0.0011460840504626045,
        "Eccentricity": 0.0,
        "Inclination(deg)": 60.0,
        "Latitude(deg)": 5.848933583358064,
        "Longitude(deg)": -72.06125707831336,
        "Mean Anomaly(deg)": 6.821167600080132,
        "RAAN(deg)": 24.99537945946283,
        "Satellite Name": "Test1 110",
        "Satellite Number": 110,
        "Semi-Major Axis(m)": 6980739.136638005,
        "Time(s)": 110
    },
    {
        "Altitude(m)": 604354.0559758429,
        "Argument of Periapsis(deg)": 0.0012502735095955685,
        "Eccentricity": 0.0,
        "Inclination(deg)": 60.0,
        "Latitude(deg)": 6.388377575498439,
        "Longitude(deg)": -71.78954714828208,
        "Mean Anomaly(deg)": 7.441273745541966,
        "RAAN(deg)": 24.994959410323087,
        "Satellite Name": "Test1 110",
        "Satellite Number": 110,
        "Semi-Major Axis(m)": 6980739.136638005,
        "Time(s)": 120
    },
    {
        "Altitude(m)": 604323.816995908,
        "Argument of Periapsis(deg)": 0.0013544629687285324,
        "Eccentricity": 0.0,
        "Inclination(deg)": 60.0,
        "Latitude(deg)": 6.927627562713018,
        "Longitude(deg)": -71.51717665556048,
        "Mean Anomaly(deg)": 8.06137989100379,
        "RAAN(deg)": 24.994539361183342,
        "Satellite Name": "Test1 110",
        "Satellite Number": 110,
        "Semi-Major Axis(m)": 6980739.136638005,
        "Time(s)": 130
    },
    {
        "Altitude(m)": 604296.7821336935,
        "Argument of Periapsis(deg)": 0.0014586524278614966,
        "Eccentricity": 0.0,
        "Inclination(deg)": 60.0,
        "Latitude(deg)": 7.466665666779651,
        "Longitude(deg)": -71.2440887189189,
        "Mean Anomaly(deg)": 8.681486036465625,
        "RAAN(deg)": 24.9941193120436,
        "Satellite Name": "Test1 110",
        "Satellite Number": 110,
        "Semi-Major Axis(m)": 6980739.136638005,
        "Time(s)": 140
    },
    {
        "Altitude(m)": 604272.9396041172,
        "Argument of Periapsis(deg)": 0.0015628418869944607,
        "Eccentricity": 0.0,
        "Inclination(deg)": 60.0,
        "Latitude(deg)": 8.005473874551956,
        "Longitude(deg)": -70.97022603101219,
        "Mean Anomaly(deg)": 9.301592181927452,
        "RAAN(deg)": 24.99369926290386,
        "Satellite Name": "Test1 110",
        "Satellite Number": 110,
        "Semi-Major Axis(m)": 6980739.136638005,
        "Time(s)": 150
    },
    {
        "Altitude(m)": 604252.2761468812,
        "Argument of Periapsis(deg)": 0.0016670313461274247,
        "Eccentricity": 0.0,
        "Inclination(deg)": 60.0,
        "Latitude(deg)": 8.544034026851511,
        "Longitude(deg)": -70.69553031949374,
        "Mean Anomaly(deg)": 9.92169832738928,
        "RAAN(deg)": 24.99327921376412,
        "Satellite Name": "Test1 110",
        "Satellite Number": 110,
        "Semi-Major Axis(m)": 6980739.136638005,
        "Time(s)": 160
    },
    {
        "Altitude(m)": 604234.7770358142,
        "Argument of Periapsis(deg)": 0.0017712208052603888,
        "Eccentricity": 0.0,
        "Inclination(deg)": 60.0,
        "Latitude(deg)": 9.082327807163649,
        "Longitude(deg)": -70.41994332059268,
        "Mean Anomaly(deg)": 10.54180447285111,
        "RAAN(deg)": 24.992859164624374,
        "Satellite Name": "Test1 110",
        "Satellite Number": 110,
        "Semi-Major Axis(m)": 6980739.136638005,
        "Time(s)": 170
    },
    {
        "Altitude(m)": 604220.4260889282,
        "Argument of Periapsis(deg)": 0.001875410264393353,
        "Eccentricity": 0.0,
        "Inclination(deg)": 60.0,
        "Latitude(deg)": 9.620336730122702,
        "Longitude(deg)": -70.14340623937797,
        "Mean Anomaly(deg)": 11.161910618312945,
        "RAAN(deg)": 24.992439115484633,
        "Satellite Name": "Test1 110",
        "Satellite Number": 110,
        "Semi-Major Axis(m)": 6980739.136638005,
        "Time(s)": 180
    },
    {
        "Altitude(m)": 604209.2056791642,
        "Argument of Periapsis(deg)": 0.0019795997235263173,
        "Eccentricity": 0.0,
        "Inclination(deg)": 60.0,
        "Latitude(deg)": 10.158042129770292,
        "Longitude(deg)": -69.86585920955301,
        "Mean Anomaly(deg)": 11.782016763774772,
        "RAAN(deg)": 24.99201906634489,
        "Satellite Name": "Test1 110",
        "Satellite Number": 110,
        "Semi-Major Axis(m)": 6980739.136638005,
        "Time(s)": 190
    }
]